CSS (TIANHE)            
1 48274U 21035A   23188.01789942  .00027227  00000+0  33234-3 0  9995
2 48274  41.4748  35.4405 0008090 229.5778 130.4355 15.59800719124938
